IRIDIUM 112             
1 41925U 17003J   25092.54535345  .00000196  00000+0  62762-4 0  9996
2 41925  86.3906 272.4012 0002218  90.0486 270.0964 14.34219180430113
IRIDIUM 111             
1 41926U 17003K   25092.53266456  .00000034  00000+0  49644-5 0  9996
2 41926  86.3906 272.4674 0001972  90.2354 269.9068 14.34217538430094
IRIDIUM 113             
1 42803U 17039A   25092.58240073  .00000562  00000+0  19354-3 0  9991
2 42803  86.3994 146.3541 0002523  90.1178 270.0307 14.34218050408032
IRIDIUM 123             
1 42804U 17039B   25092.48433971  .00000188  00000+0  60045-4 0  9990
2 42804  86.4044 177.8181 0001928  93.9710 266.1706 14.34218666406782
IRIDIUM 120             
1 42805U 17039C   25092.57604470  .00000452  00000+0  15439-3 0  9995
2 42805  86.3984 146.1964 0001989 102.5835 257.5584 14.34223007408027
IRIDIUM 115             
1 42806U 17039D   25092.59043355  .00000622  00000+0  17901-3 0  9992
2 42806  86.4521 146.2584 0001680  81.2709 278.8682 14.43275546410715
IRIDIUM 118             
1 42807U 17039E   25092.58581859 -.00001261  00000+0 -45730-3 0  9991
2 42807  86.4044 177.7755 0002120  91.6210 268.5229 14.34215293406796
IRIDIUM 117             
1 42808U 17039F   25092.60484746  .00000450  00000+0  15350-3 0  9994
2 42808  86.4042 177.7298 0001973  88.8840 271.2582 14.34217312406820
